{
  "type": "FeatureCollection",
  "name": "central_asia_polygon_sample",
  "features": [
    {
      "type": "Feature",
      "properties": {
        "name": "Kazakhstan",
        "water_stress_percent": 34.6,
        "area_km2": 2724900
      },
      "geometry": {
        "type": "Polygon",
        "coordinates": [[[46, 41], [87, 41], [87, 56], [46, 56], [46, 41]]]
      }
    },
    {
      "type": "Feature",
      "properties": {
        "name": "Uzbekistan",
        "water_stress_percent": 123.0,
        "area_km2": 448978
      },
      "geometry": {
        "type": "Polygon",
        "coordinates": [[[56, 37], [73, 37], [73, 46], [56, 46], [56, 37]]]
      }
    },
    {
      "type": "Feature",
      "properties": {
        "name": "Turkmenistan",
        "water_stress_percent": 135.2,
        "area_km2": 491210
      },
      "geometry": {
        "type": "Polygon",
        "coordinates": [[[52, 35], [67, 35], [67, 43], [52, 43], [52, 35]]]
      }
    },
    {
      "type": "Feature",
      "properties": {
        "name": "Kyrgyzstan",
        "water_stress_percent": 50.0,
        "area_km2": 199951
      },
      "geometry": {
        "type": "Polygon",
        "coordinates": [[[69, 39], [81, 39], [81, 44], [69, 44], [69, 39]]]
      }
    },
    {
      "type": "Feature",
      "properties": {
        "name": "Tajikistan",
        "water_stress_percent": 69.9,
        "area_km2": 143100
      },
      "geometry": {
        "type": "Polygon",
        "coordinates": [[[67, 36], [75, 36], [75, 41], [67, 41], [67, 36]]]
      }
    }
  ]
}
